CCSDS_OMM_VERS = 2.0
CREATION_DATE  = 
ORIGINATOR     = 

OBJECT_NAME    = COSMOS 1933
OBJECT_ID      = 1988-020A
CENTER_NAME    = EARTH
REF_FRAME      = TEME
TIME_SYSTEM    = UTC
MEAN_ELEMENT_THEORY = SGP/SGP4

EPOCH          = 2026-01-26T04:49:39.848160
MEAN_MOTION    = 15.17592391
ECCENTRICITY   = .0004509
INCLINATION    = 82.5142
RA_OF_ASC_NODE = 292.9408
ARG_OF_PERICENTER = 12.2224
MEAN_ANOMALY   = 347.9118

EPHEMERIS_TYPE = 0
CLASSIFICATION_TYPE = U
NORAD_CAT_ID   = 18958
ELEMENT_SET_NO = 999
REV_AT_EPOCH   = 4378
BSTAR          = .33203E-3
MEAN_MOTION_DOT = .6702E-4
MEAN_MOTION_DDOT = 0

CCSDS_OMM_VERS = 2.0
CREATION_DATE  = 
ORIGINATOR     = 

OBJECT_NAME    = SL-3 R/B
OBJECT_ID      = 1988-032B
CENTER_NAME    = EARTH
REF_FRAME      = TEME
TIME_SYSTEM    = UTC
MEAN_ELEMENT_THEORY = SGP/SGP4

EPOCH          = 2026-01-26T11:00:11.951424
MEAN_MOTION    = 15.19320499
ECCENTRICITY   = .0027213
INCLINATION    = 97.5133
RA_OF_ASC_NODE = 9.8989
ARG_OF_PERICENTER = 25.2299
MEAN_ANOMALY   = 335.0258

EPHEMERIS_TYPE = 0
CLASSIFICATION_TYPE = U
NORAD_CAT_ID   = 19046
ELEMENT_SET_NO = 999
REV_AT_EPOCH   = 4569
BSTAR          = .38444E-3
MEAN_MOTION_DOT = .8131E-4
MEAN_MOTION_DDOT = 0

CCSDS_OMM_VERS = 2.0
CREATION_DATE  = 
ORIGINATOR     = 

OBJECT_NAME    = SL-16 R/B
OBJECT_ID      = 1988-039B
CENTER_NAME    = EARTH
REF_FRAME      = TEME
TIME_SYSTEM    = UTC
MEAN_ELEMENT_THEORY = SGP/SGP4

EPOCH          = 2026-01-26T11:47:22.829280
MEAN_MOTION    = 14.19608894
ECCENTRICITY   = .0020276
INCLINATION    = 71.0148
RA_OF_ASC_NODE = 157.7762
ARG_OF_PERICENTER = 40.1270
MEAN_ANOMALY   = 320.1348

EPHEMERIS_TYPE = 0
CLASSIFICATION_TYPE = U
NORAD_CAT_ID   = 19120
ELEMENT_SET_NO = 999
REV_AT_EPOCH   = 95239
BSTAR          = .21966E-4
MEAN_MOTION_DOT = -.2E-7
MEAN_MOTION_DDOT = 0

CCSDS_OMM_VERS = 2.0
CREATION_DATE  = 
ORIGINATOR     = 

OBJECT_NAME    = COSMOS 1953
OBJECT_ID      = 1988-050A
CENTER_NAME    = EARTH
REF_FRAME      = TEME
TIME_SYSTEM    = UTC
MEAN_ELEMENT_THEORY = SGP/SGP4

EPOCH          = 2026-01-26T12:28:32.104128
MEAN_MOTION    = 15.27619462
ECCENTRICITY   = .0010377
INCLINATION    = 82.5076
RA_OF_ASC_NODE = 200.6250
ARG_OF_PERICENTER = 273.9450
MEAN_ANOMALY   = 86.0603

EPHEMERIS_TYPE = 0
CLASSIFICATION_TYPE = U
NORAD_CAT_ID   = 19210
ELEMENT_SET_NO = 999
REV_AT_EPOCH   = 3134
BSTAR          = .40361E-3
MEAN_MOTION_DOT = .10947E-3
MEAN_MOTION_DDOT = 0

CCSDS_OMM_VERS = 2.0
CREATION_DATE  = 
ORIGINATOR     = 

OBJECT_NAME    = SL-8 R/B
OBJECT_ID      = 1988-053B
CENTER_NAME    = EARTH
REF_FRAME      = TEME
TIME_SYSTEM    = UTC
MEAN_ELEMENT_THEORY = SGP/SGP4

EPOCH          = 2026-01-26T10:54:50.145120
MEAN_MOTION    = 14.38888651
ECCENTRICITY   = .0019807
INCLINATION    = 74.0462
RA_OF_ASC_NODE = 190.3071
ARG_OF_PERICENTER = 18.5332
MEAN_ANOMALY   = 43.6567

EPHEMERIS_TYPE = 0
CLASSIFICATION_TYPE = U
NORAD_CAT_ID   = 19257
ELEMENT_SET_NO = 999
REV_AT_EPOCH   = 97052
BSTAR          = .13494E-3
MEAN_MOTION_DOT = .39E-5
MEAN_MOTION_DDOT = 0

CCSDS_OMM_VERS = 2.0
CREATION_DATE  = 
ORIGINATOR     = 

OBJECT_NAME    = COSMOS 1975
OBJECT_ID      = 1988-093A
CENTER_NAME    = EARTH
REF_FRAME      = TEME
TIME_SYSTEM    = UTC
MEAN_ELEMENT_THEORY = SGP/SGP4

EPOCH          = 2026-01-26T09:52:37.517376
MEAN_MOTION    = 15.27256141
ECCENTRICITY   = .0010831
INCLINATION    = 82.5215
RA_OF_ASC_NODE = 160.0846
ARG_OF_PERICENTER = 323.9672
MEAN_ANOMALY   = 36.0836

EPHEMERIS_TYPE = 0
CLASSIFICATION_TYPE = U
NORAD_CAT_ID   = 19573
ELEMENT_SET_NO = 999
REV_AT_EPOCH   = 1295
BSTAR          = .44068E-3
MEAN_MOTION_DOT = .11821E-3
MEAN_MOTION_DDOT = 0

CCSDS_OMM_VERS = 2.0
CREATION_DATE  = 
ORIGINATOR     = 

OBJECT_NAME    = SL-14 R/B
OBJECT_ID      = 1988-093B
CENTER_NAME    = EARTH
REF_FRAME      = TEME
TIME_SYSTEM    = UTC
MEAN_ELEMENT_THEORY = SGP/SGP4

EPOCH          = 2026-01-26T03:53:02.353920
MEAN_MOTION    = 14.85608358
ECCENTRICITY   = .00208439
INCLINATION    = 82.5293
RA_OF_ASC_NODE = 81.9775
ARG_OF_PERICENTER = 174.6406
MEAN_ANOMALY   = 243.2918

EPHEMERIS_TYPE = 0
CLASSIFICATION_TYPE = U
NORAD_CAT_ID   = 19574
ELEMENT_SET_NO = 999
REV_AT_EPOCH   = 99472
BSTAR          = .87493889E-4
MEAN_MOTION_DOT = .784E-5
MEAN_MOTION_DDOT = 0

CCSDS_OMM_VERS = 2.0
CREATION_DATE  = 
ORIGINATOR     = 

OBJECT_NAME    = SL-16 R/B
OBJECT_ID      = 1988-102B
CENTER_NAME    = EARTH
REF_FRAME      = TEME
TIME_SYSTEM    = UTC
MEAN_ELEMENT_THEORY = SGP/SGP4

EPOCH          = 2026-01-26T07:29:14.656416
MEAN_MOTION    = 14.16148029
ECCENTRICITY   = .0011947
INCLINATION    = 70.9974
RA_OF_ASC_NODE = 240.6610
ARG_OF_PERICENTER = 72.3731
MEAN_ANOMALY   = 287.8696

EPHEMERIS_TYPE = 0
CLASSIFICATION_TYPE = U
NORAD_CAT_ID   = 19650
ELEMENT_SET_NO = 999
REV_AT_EPOCH   = 92089
BSTAR          = -.45742E-4
MEAN_MOTION_DOT = -.138E-5
MEAN_MOTION_DDOT = 0

CCSDS_OMM_VERS = 2.0
CREATION_DATE  = 
ORIGINATOR     = 

OBJECT_NAME    = INTERCOSMOS 24
OBJECT_ID      = 1989-080A
CENTER_NAME    = EARTH
REF_FRAME      = TEME
TIME_SYSTEM    = UTC
MEAN_ELEMENT_THEORY = SGP/SGP4

EPOCH          = 2026-01-26T09:18:51.280992
MEAN_MOTION    = 12.59501826
ECCENTRICITY   = .1188734
INCLINATION    = 82.6079
RA_OF_ASC_NODE = 131.9297
ARG_OF_PERICENTER = 31.0091
MEAN_ANOMALY   = 335.5951

EPHEMERIS_TYPE = 0
CLASSIFICATION_TYPE = U
NORAD_CAT_ID   = 20261
ELEMENT_SET_NO = 999
REV_AT_EPOCH   = 66147
BSTAR          = .19033E-3
MEAN_MOTION_DOT = .668E-5
MEAN_MOTION_DDOT = 0

CCSDS_OMM_VERS = 2.0
CREATION_DATE  = 
ORIGINATOR     = 

OBJECT_NAME    = SL-14 R/B
OBJECT_ID      = 1989-080C
CENTER_NAME    = EARTH
REF_FRAME      = TEME
TIME_SYSTEM    = UTC
MEAN_ELEMENT_THEORY = SGP/SGP4

EPOCH          = 2026-01-26T11:13:09.274080
MEAN_MOTION    = 12.50446842
ECCENTRICITY   = .1229486
INCLINATION    = 82.5925
RA_OF_ASC_NODE = 200.2955
ARG_OF_PERICENTER = 281.3261
MEAN_ANOMALY   = 65.2434

EPHEMERIS_TYPE = 0
CLASSIFICATION_TYPE = U
NORAD_CAT_ID   = 20262
ELEMENT_SET_NO = 999
REV_AT_EPOCH   = 65487
BSTAR          = .12983E-3
MEAN_MOTION_DOT = .427E-5
MEAN_MOTION_DDOT = 0

CCSDS_OMM_VERS = 2.0
CREATION_DATE  = 
ORIGINATOR     = 

OBJECT_NAME    = DELTA 1 R/B
OBJECT_ID      = 1989-089B
CENTER_NAME    = EARTH
REF_FRAME      = TEME
TIME_SYSTEM    = UTC
MEAN_ELEMENT_THEORY = SGP/SGP4

EPOCH          = 2026-01-26T11:25:12.996768
MEAN_MOTION    = 14.50622751
ECCENTRICITY   = .0067584
INCLINATION    = 97.0732
RA_OF_ASC_NODE = 240.6198
ARG_OF_PERICENTER = 255.8893
MEAN_ANOMALY   = 103.4787

EPHEMERIS_TYPE = 0
CLASSIFICATION_TYPE = U
NORAD_CAT_ID   = 20323
ELEMENT_SET_NO = 999
REV_AT_EPOCH   = 88961
BSTAR          = .18157E-3
MEAN_MOTION_DOT = .697E-5
MEAN_MOTION_DDOT = 0

CCSDS_OMM_VERS = 2.0
CREATION_DATE  = 
ORIGINATOR     = 

OBJECT_NAME    = ARIANE 40 R/B
OBJECT_ID      = 1990-005H
CENTER_NAME    = EARTH
REF_FRAME      = TEME
TIME_SYSTEM    = UTC
MEAN_ELEMENT_THEORY = SGP/SGP4

EPOCH          = 2026-01-26T03:29:39.300864
MEAN_MOTION    = 14.39839491
ECCENTRICITY   = .00094974
INCLINATION    = 98.3174
RA_OF_ASC_NODE = 88.0551
ARG_OF_PERICENTER = 339.2335
MEAN_ANOMALY   = 20.8467

EPHEMERIS_TYPE = 0
CLASSIFICATION_TYPE = U
NORAD_CAT_ID   = 20443
ELEMENT_SET_NO = 999
REV_AT_EPOCH   = 88668
BSTAR          = .19217264E-3
MEAN_MOTION_DOT = .561E-5
MEAN_MOTION_DDOT = 0

