COSMOS 1933             
1 18958U 88020A   26026.20115565  .00006702  00000+0  33203-3 0  9998
2 18958  82.5142 292.9408 0004509  12.2224 347.9118 15.17592391 43788
SL-3 R/B                
1 19046U 88032B   26026.45847166  .00008131  00000+0  38444-3 0  9996
2 19046  97.5133   9.8989 0027213  25.2299 335.0258 15.19320499 45690
SL-16 R/B               
1 19120U 88039B   26026.49123645 -.00000002  00000+0  21966-4 0  9991
2 19120  71.0148 157.7762 0020276  40.1270 320.1348 14.19608894952391
COSMOS 1953             
1 19210U 88050A   26026.51981602  .00010947  00000+0  40361-3 0  9999
2 19210  82.5076 200.6250 0010377 273.9450  86.0603 15.27619462 31343
SL-8 R/B                
1 19257U 88053B   26026.45474705  .00000390  00000+0  13494-3 0  9995
2 19257  74.0462 190.3071 0019807  18.5332  43.6567 14.38888651970523
COSMOS 1975             
1 19573U 88093A   26026.41154534  .00011821  00000+0  44068-3 0  9993
2 19573  82.5215 160.0846 0010831 323.9672  36.0836 15.27256141 12957
SL-14 R/B               
1 19574U 88093B   26026.16183280  .00000784  00000+0  87494-4 0  9993
2 19574  82.5293  81.9775 0020843 174.6406 243.2918 14.85608358994727
SL-16 R/B               
1 19650U 88102B   26026.31197519 -.00000138  00000+0 -45742-4 0  9991
2 19650  70.9974 240.6610 0011947  72.3731 287.8696 14.16148029920893
INTERCOSMOS 24          
1 20261U 89080A   26026.38809353  .00000668  00000+0  19033-3 0  9999
2 20261  82.6079 131.9297 1188734  31.0091 335.5951 12.59501826661477
SL-14 R/B               
1 20262U 89080C   26026.46746845  .00000427  00000+0  12983-3 0  9995
2 20262  82.5925 200.2955 1229486 281.3261  65.2434 12.50446842654873
DELTA 1 R/B             
1 20323U 89089B   26026.47584487  .00000697  00000+0  18157-3 0  9993
2 20323  97.0732 240.6198 0067584 255.8893 103.4787 14.50622751889615
ARIANE 40 R/B           
1 20443U 90005H   26026.14559376  .00000561  00000+0  19217-3 0  9997
2 20443  98.3174  88.0551 0009497 339.2335  20.8467 14.39839491886685
